E-KAGAKU-1              
1 65943U 98067XQ  26070.35401335  .00244131  00000+0  11982-2 0  9993
2 65943  51.6236  48.7312 0005829  85.6037 274.5631 15.80954651 23760
HRC MONOBLOCK CAMERA    
1 66052U 98067XR  26070.68325805  .00059876  00000+0  66186-3 0  9995
2 66052  51.6284  55.4704 0003772 100.9894 259.1524 15.62442682 22701
HTV-X1                  
1 66174U 25241A   26070.91618997  .00011240  00000+0  48667-3 0  9994
2 66174  51.6347  62.2554 0005836 177.6058 182.4948 15.22855601 21297
SZ-21 MODULE            
1 66515U 25246C   26070.66510517  .00042405  00000+0  36183-3 0  9996
2 66515  41.4734 191.1990 0001230 305.0978  54.9749 15.68721611 18382
SHENZHOU-22             
1 66645U 25272A   26070.76324018  .00028963  00000+0  34031-3 0  9992
2 66645  41.4661 195.5440 0006799 284.6024  75.4061 15.60782980267527
SOYUZ-MS 28             
1 66664U 25275A   26070.83651154  .00008338  00000+0  16153-3 0  9997
2 66664  51.6324  61.7417 0007972 182.2925 177.8028 15.48586968554525
DUPLEX                  
1 66906U 98067XS  26070.51254446  .00040984  00000+0  57411-3 0  9998
2 66906  51.6291  60.3322 0002562 120.8147 239.3097 15.56362419 15413
ISS OBJECT XT           
1 66907U 98067XT  26070.36561693  .00181509  00000+0  14595-2 0  9991
2 66907  51.6250  57.0845 0004717  88.7604 271.3934 15.69844400 15444
ISS OBJECT XU           
1 66908U 98067XU  26070.55463510  .00173925  00000+0  13885-2 0  9996
2 66908  51.6249  56.0925 0004913  92.2997 267.8563 15.70040641 15472
SILVERSAT               
1 66909U 98067XV  26070.93349423  .00204657  00000+0  14222-2 0  9998
2 66909  51.6250  53.3712 0005436  91.4350 268.7272 15.73231995 15546
ISS OBJECT XW           
1 66910U 98067XW  26070.93436701  .00139572  00000+0  11546-2 0  9995
2 66910  51.6251  54.1254 0005311  99.1513 261.0085 15.69299651 15532
ISS OBJECT XX           
1 66911U 98067XX  26070.92586662  .00256385  00000+0  15253-2 0  9998
2 66911  51.6229  52.5485 0007023  97.7151 262.4646 15.76641755 15543
