CCSDS_OMM_VERS = 2.0
CREATION_DATE  = 
ORIGINATOR     = 

OBJECT_NAME    = E-KAGAKU-1
OBJECT_ID      = 1998-067XQ
CENTER_NAME    = EARTH
REF_FRAME      = TEME
TIME_SYSTEM    = UTC
MEAN_ELEMENT_THEORY = SGP/SGP4

EPOCH          = 2026-03-11T08:29:46.753440
MEAN_MOTION    = 15.80954651
ECCENTRICITY   = .00058295
INCLINATION    = 51.6236
RA_OF_ASC_NODE = 48.7312
ARG_OF_PERICENTER = 85.6037
MEAN_ANOMALY   = 274.5631

EPHEMERIS_TYPE = 0
CLASSIFICATION_TYPE = U
NORAD_CAT_ID   = 65943
ELEMENT_SET_NO = 999
REV_AT_EPOCH   = 2376
BSTAR          = .11981716E-2
MEAN_MOTION_DOT = .244131E-2
MEAN_MOTION_DDOT = 0

CCSDS_OMM_VERS = 2.0
CREATION_DATE  = 
ORIGINATOR     = 

OBJECT_NAME    = HRC MONOBLOCK CAMERA
OBJECT_ID      = 1998-067XR
CENTER_NAME    = EARTH
REF_FRAME      = TEME
TIME_SYSTEM    = UTC
MEAN_ELEMENT_THEORY = SGP/SGP4

EPOCH          = 2026-03-11T16:23:53.495520
MEAN_MOTION    = 15.62442682
ECCENTRICITY   = .00037726
INCLINATION    = 51.6284
RA_OF_ASC_NODE = 55.4704
ARG_OF_PERICENTER = 100.9894
MEAN_ANOMALY   = 259.1524

EPHEMERIS_TYPE = 0
CLASSIFICATION_TYPE = U
NORAD_CAT_ID   = 66052
ELEMENT_SET_NO = 999
REV_AT_EPOCH   = 2270
BSTAR          = .66186286E-3
MEAN_MOTION_DOT = .59876E-3
MEAN_MOTION_DDOT = 0

CCSDS_OMM_VERS = 2.0
CREATION_DATE  = 
ORIGINATOR     = 

OBJECT_NAME    = HTV-X1
OBJECT_ID      = 2025-241A
CENTER_NAME    = EARTH
REF_FRAME      = TEME
TIME_SYSTEM    = UTC
MEAN_ELEMENT_THEORY = SGP/SGP4

EPOCH          = 2026-03-11T21:59:18.813408
MEAN_MOTION    = 15.22855601
ECCENTRICITY   = .00058365
INCLINATION    = 51.6347
RA_OF_ASC_NODE = 62.2554
ARG_OF_PERICENTER = 177.6058
MEAN_ANOMALY   = 182.4948

EPHEMERIS_TYPE = 0
CLASSIFICATION_TYPE = U
NORAD_CAT_ID   = 66174
ELEMENT_SET_NO = 999
REV_AT_EPOCH   = 2129
BSTAR          = .48666692E-3
MEAN_MOTION_DOT = .1124E-3
MEAN_MOTION_DDOT = 0

CCSDS_OMM_VERS = 2.0
CREATION_DATE  = 
ORIGINATOR     = 

OBJECT_NAME    = SZ-21 MODULE
OBJECT_ID      = 2025-246C
CENTER_NAME    = EARTH
REF_FRAME      = TEME
TIME_SYSTEM    = UTC
MEAN_ELEMENT_THEORY = SGP/SGP4

EPOCH          = 2026-03-11T15:57:45.086688
MEAN_MOTION    = 15.68721611
ECCENTRICITY   = .00012302
INCLINATION    = 41.4734
RA_OF_ASC_NODE = 191.1990
ARG_OF_PERICENTER = 305.0978
MEAN_ANOMALY   = 54.9749

EPHEMERIS_TYPE = 0
CLASSIFICATION_TYPE = U
NORAD_CAT_ID   = 66515
ELEMENT_SET_NO = 999
REV_AT_EPOCH   = 1838
BSTAR          = .36182576E-3
MEAN_MOTION_DOT = .42405E-3
MEAN_MOTION_DDOT = 0

CCSDS_OMM_VERS = 2.0
CREATION_DATE  = 
ORIGINATOR     = 

OBJECT_NAME    = SHENZHOU-22
OBJECT_ID      = 2025-272A
CENTER_NAME    = EARTH
REF_FRAME      = TEME
TIME_SYSTEM    = UTC
MEAN_ELEMENT_THEORY = SGP/SGP4

EPOCH          = 2026-03-11T18:19:03.951552
MEAN_MOTION    = 15.60782980
ECCENTRICITY   = .00067997
INCLINATION    = 41.4661
RA_OF_ASC_NODE = 195.5440
ARG_OF_PERICENTER = 284.6024
MEAN_ANOMALY   = 75.4061

EPHEMERIS_TYPE = 0
CLASSIFICATION_TYPE = U
NORAD_CAT_ID   = 66645
ELEMENT_SET_NO = 999
REV_AT_EPOCH   = 26752
BSTAR          = .34030992E-3
MEAN_MOTION_DOT = .28963E-3
MEAN_MOTION_DDOT = 0

CCSDS_OMM_VERS = 2.0
CREATION_DATE  = 
ORIGINATOR     = 

OBJECT_NAME    = SOYUZ-MS 28
OBJECT_ID      = 2025-275A
CENTER_NAME    = EARTH
REF_FRAME      = TEME
TIME_SYSTEM    = UTC
MEAN_ELEMENT_THEORY = SGP/SGP4

EPOCH          = 2026-03-11T20:04:34.597056
MEAN_MOTION    = 15.48586968
ECCENTRICITY   = .00079729
INCLINATION    = 51.6324
RA_OF_ASC_NODE = 61.7417
ARG_OF_PERICENTER = 182.2925
MEAN_ANOMALY   = 177.8028

EPHEMERIS_TYPE = 0
CLASSIFICATION_TYPE = U
NORAD_CAT_ID   = 66664
ELEMENT_SET_NO = 999
REV_AT_EPOCH   = 55452
BSTAR          = .16153042E-3
MEAN_MOTION_DOT = .8338E-4
MEAN_MOTION_DDOT = 0

CCSDS_OMM_VERS = 2.0
CREATION_DATE  = 
ORIGINATOR     = 

OBJECT_NAME    = DUPLEX
OBJECT_ID      = 1998-067XS
CENTER_NAME    = EARTH
REF_FRAME      = TEME
TIME_SYSTEM    = UTC
MEAN_ELEMENT_THEORY = SGP/SGP4

EPOCH          = 2026-03-11T12:18:03.841344
MEAN_MOTION    = 15.56362419
ECCENTRICITY   = .00025628
INCLINATION    = 51.6291
RA_OF_ASC_NODE = 60.3322
ARG_OF_PERICENTER = 120.8147
MEAN_ANOMALY   = 239.3097

EPHEMERIS_TYPE = 0
CLASSIFICATION_TYPE = U
NORAD_CAT_ID   = 66906
ELEMENT_SET_NO = 999
REV_AT_EPOCH   = 1541
BSTAR          = .57410853E-3
MEAN_MOTION_DOT = .40984E-3
MEAN_MOTION_DDOT = 0

CCSDS_OMM_VERS = 2.0
CREATION_DATE  = 
ORIGINATOR     = 

OBJECT_NAME    = ISS OBJECT XT
OBJECT_ID      = 1998-067XT
CENTER_NAME    = EARTH
REF_FRAME      = TEME
TIME_SYSTEM    = UTC
MEAN_ELEMENT_THEORY = SGP/SGP4

EPOCH          = 2026-03-11T08:46:29.302752
MEAN_MOTION    = 15.69844400
ECCENTRICITY   = .00047173
INCLINATION    = 51.6250
RA_OF_ASC_NODE = 57.0845
ARG_OF_PERICENTER = 88.7604
MEAN_ANOMALY   = 271.3934

EPHEMERIS_TYPE = 0
CLASSIFICATION_TYPE = U
NORAD_CAT_ID   = 66907
ELEMENT_SET_NO = 999
REV_AT_EPOCH   = 1544
BSTAR          = .14594536E-2
MEAN_MOTION_DOT = .181509E-2
MEAN_MOTION_DDOT = 0

CCSDS_OMM_VERS = 2.0
CREATION_DATE  = 
ORIGINATOR     = 

OBJECT_NAME    = ISS OBJECT XU
OBJECT_ID      = 1998-067XU
CENTER_NAME    = EARTH
REF_FRAME      = TEME
TIME_SYSTEM    = UTC
MEAN_ELEMENT_THEORY = SGP/SGP4

EPOCH          = 2026-03-11T13:18:40.472640
MEAN_MOTION    = 15.70040641
ECCENTRICITY   = .0004913
INCLINATION    = 51.6249
RA_OF_ASC_NODE = 56.0925
ARG_OF_PERICENTER = 92.2997
MEAN_ANOMALY   = 267.8563

EPHEMERIS_TYPE = 0
CLASSIFICATION_TYPE = U
NORAD_CAT_ID   = 66908
ELEMENT_SET_NO = 999
REV_AT_EPOCH   = 1547
BSTAR          = .13885391E-2
MEAN_MOTION_DOT = .173925E-2
MEAN_MOTION_DDOT = 0

CCSDS_OMM_VERS = 2.0
CREATION_DATE  = 
ORIGINATOR     = 

OBJECT_NAME    = SILVERSAT
OBJECT_ID      = 1998-067XV
CENTER_NAME    = EARTH
REF_FRAME      = TEME
TIME_SYSTEM    = UTC
MEAN_ELEMENT_THEORY = SGP/SGP4

EPOCH          = 2026-03-11T22:24:13.901472
MEAN_MOTION    = 15.73231995
ECCENTRICITY   = .00054363
INCLINATION    = 51.6250
RA_OF_ASC_NODE = 53.3712
ARG_OF_PERICENTER = 91.4350
MEAN_ANOMALY   = 268.7272

EPHEMERIS_TYPE = 0
CLASSIFICATION_TYPE = U
NORAD_CAT_ID   = 66909
ELEMENT_SET_NO = 999
REV_AT_EPOCH   = 1554
BSTAR          = .14221718E-2
MEAN_MOTION_DOT = .204657E-2
MEAN_MOTION_DDOT = 0

CCSDS_OMM_VERS = 2.0
CREATION_DATE  = 
ORIGINATOR     = 

OBJECT_NAME    = ISS OBJECT XW
OBJECT_ID      = 1998-067XW
CENTER_NAME    = EARTH
REF_FRAME      = TEME
TIME_SYSTEM    = UTC
MEAN_ELEMENT_THEORY = SGP/SGP4

EPOCH          = 2026-03-11T22:25:29.309664
MEAN_MOTION    = 15.69299651
ECCENTRICITY   = .00053118
INCLINATION    = 51.6251
RA_OF_ASC_NODE = 54.1254
ARG_OF_PERICENTER = 99.1513
MEAN_ANOMALY   = 261.0085

EPHEMERIS_TYPE = 0
CLASSIFICATION_TYPE = U
NORAD_CAT_ID   = 66910
ELEMENT_SET_NO = 999
REV_AT_EPOCH   = 1553
BSTAR          = .11545909E-2
MEAN_MOTION_DOT = .139572E-2
MEAN_MOTION_DDOT = 0

CCSDS_OMM_VERS = 2.0
CREATION_DATE  = 
ORIGINATOR     = 

OBJECT_NAME    = ISS OBJECT XX
OBJECT_ID      = 1998-067XX
CENTER_NAME    = EARTH
REF_FRAME      = TEME
TIME_SYSTEM    = UTC
MEAN_ELEMENT_THEORY = SGP/SGP4

EPOCH          = 2026-03-11T22:13:14.875968
MEAN_MOTION    = 15.76641755
ECCENTRICITY   = .00070233
INCLINATION    = 51.6229
RA_OF_ASC_NODE = 52.5485
ARG_OF_PERICENTER = 97.7151
MEAN_ANOMALY   = 262.4646

EPHEMERIS_TYPE = 0
CLASSIFICATION_TYPE = U
NORAD_CAT_ID   = 66911
ELEMENT_SET_NO = 999
REV_AT_EPOCH   = 1554
BSTAR          = .15253097E-2
MEAN_MOTION_DOT = .256385E-2
MEAN_MOTION_DDOT = 0

